CCSDS_OMM_VERS = 2.0
CREATION_DATE  = 
ORIGINATOR     = 

OBJECT_NAME    = SL-14 R/B
OBJECT_ID      = 1986-046B
CENTER_NAME    = EARTH
REF_FRAME      = TEME
TIME_SYSTEM    = UTC
MEAN_ELEMENT_THEORY = SGP/SGP4

EPOCH          = 2026-03-18T02:12:26.868960
MEAN_MOTION    = 14.85598529
ECCENTRICITY   = .00225996
INCLINATION    = 82.4786
RA_OF_ASC_NODE = 72.2399
ARG_OF_PERICENTER = 196.5632
MEAN_ANOMALY   = 163.4849

EPHEMERIS_TYPE = 0
CLASSIFICATION_TYPE = U
NORAD_CAT_ID   = 16792
ELEMENT_SET_NO = 999
REV_AT_EPOCH   = 12765
BSTAR          = .45462007E-4
MEAN_MOTION_DOT = .419E-5
MEAN_MOTION_DDOT = 0

CCSDS_OMM_VERS = 2.0
CREATION_DATE  = 
ORIGINATOR     = 

OBJECT_NAME    = SL-14 R/B
OBJECT_ID      = 1986-055B
CENTER_NAME    = EARTH
REF_FRAME      = TEME
TIME_SYSTEM    = UTC
MEAN_ELEMENT_THEORY = SGP/SGP4

EPOCH          = 2026-03-18T03:42:09.656352
MEAN_MOTION    = 14.85650352
ECCENTRICITY   = .00175951
INCLINATION    = 82.5185
RA_OF_ASC_NODE = 118.7171
ARG_OF_PERICENTER = 307.1009
MEAN_ANOMALY   = 112.5107

EPHEMERIS_TYPE = 0
CLASSIFICATION_TYPE = U
NORAD_CAT_ID   = 16882
ELEMENT_SET_NO = 999
REV_AT_EPOCH   = 12062
BSTAR          = .47008799E-4
MEAN_MOTION_DOT = .432E-5
MEAN_MOTION_DDOT = 0

CCSDS_OMM_VERS = 2.0
CREATION_DATE  = 
ORIGINATOR     = 

OBJECT_NAME    = AJISAI (EGS)
OBJECT_ID      = 1986-061A
CENTER_NAME    = EARTH
REF_FRAME      = TEME
TIME_SYSTEM    = UTC
MEAN_ELEMENT_THEORY = SGP/SGP4

EPOCH          = 2026-03-18T07:08:22.695360
MEAN_MOTION    = 12.44515707
ECCENTRICITY   = .00112968
INCLINATION    = 50.0089
RA_OF_ASC_NODE = 66.8774
ARG_OF_PERICENTER = 309.2167
MEAN_ANOMALY   = 71.4798

EPHEMERIS_TYPE = 0
CLASSIFICATION_TYPE = U
NORAD_CAT_ID   = 16908
ELEMENT_SET_NO = 999
REV_AT_EPOCH   = 46907
BSTAR          = .1437729E-5
MEAN_MOTION_DOT = -.97E-6
MEAN_MOTION_DDOT = 0

CCSDS_OMM_VERS = 2.0
CREATION_DATE  = 
ORIGINATOR     = 

OBJECT_NAME    = SL-14 R/B
OBJECT_ID      = 1987-024B
CENTER_NAME    = EARTH
REF_FRAME      = TEME
TIME_SYSTEM    = UTC
MEAN_ELEMENT_THEORY = SGP/SGP4

EPOCH          = 2026-03-18T06:10:02.476704
MEAN_MOTION    = 14.86140339
ECCENTRICITY   = .00170017
INCLINATION    = 82.5244
RA_OF_ASC_NODE = 84.7088
ARG_OF_PERICENTER = 229.2070
MEAN_ANOMALY   = 130.7672

EPHEMERIS_TYPE = 0
CLASSIFICATION_TYPE = U
NORAD_CAT_ID   = 17567
ELEMENT_SET_NO = 999
REV_AT_EPOCH   = 8940
BSTAR          = .48710127E-4
MEAN_MOTION_DOT = .452E-5
MEAN_MOTION_DDOT = 0

CCSDS_OMM_VERS = 2.0
CREATION_DATE  = 
ORIGINATOR     = 

OBJECT_NAME    = COSMOS 1833
OBJECT_ID      = 1987-027A
CENTER_NAME    = EARTH
REF_FRAME      = TEME
TIME_SYSTEM    = UTC
MEAN_ELEMENT_THEORY = SGP/SGP4

EPOCH          = 2026-03-18T01:43:30.609984
MEAN_MOTION    = 14.13052219
ECCENTRICITY   = .00238375
INCLINATION    = 70.9202
RA_OF_ASC_NODE = 308.4020
ARG_OF_PERICENTER = 202.5392
MEAN_ANOMALY   = 157.4684

EPHEMERIS_TYPE = 0
CLASSIFICATION_TYPE = U
NORAD_CAT_ID   = 17589
ELEMENT_SET_NO = 999
REV_AT_EPOCH   = 1150
BSTAR          = -.89952426E-4
MEAN_MOTION_DOT = -.217E-5
MEAN_MOTION_DDOT = 0

CCSDS_OMM_VERS = 2.0
CREATION_DATE  = 
ORIGINATOR     = 

OBJECT_NAME    = SL-16 R/B
OBJECT_ID      = 1987-027B
CENTER_NAME    = EARTH
REF_FRAME      = TEME
TIME_SYSTEM    = UTC
MEAN_ELEMENT_THEORY = SGP/SGP4

EPOCH          = 2026-03-18T05:35:31.498944
MEAN_MOTION    = 14.17166772
ECCENTRICITY   = .0003109
INCLINATION    = 70.9991
RA_OF_ASC_NODE = 258.4901
ARG_OF_PERICENTER = 123.2145
MEAN_ANOMALY   = 236.9277

EPHEMERIS_TYPE = 0
CLASSIFICATION_TYPE = U
NORAD_CAT_ID   = 17590
ELEMENT_SET_NO = 999
REV_AT_EPOCH   = 1655
BSTAR          = -.1229347E-5
MEAN_MOTION_DOT = -.5E-6
MEAN_MOTION_DDOT = 0

CCSDS_OMM_VERS = 2.0
CREATION_DATE  = 
ORIGINATOR     = 

OBJECT_NAME    = SL-14 R/B
OBJECT_ID      = 1987-038B
CENTER_NAME    = EARTH
REF_FRAME      = TEME
TIME_SYSTEM    = UTC
MEAN_ELEMENT_THEORY = SGP/SGP4

EPOCH          = 2026-03-18T01:18:07.926624
MEAN_MOTION    = 14.85376559
ECCENTRICITY   = .00203338
INCLINATION    = 82.4988
RA_OF_ASC_NODE = 288.9266
ARG_OF_PERICENTER = 133.9003
MEAN_ANOMALY   = 226.3896

EPHEMERIS_TYPE = 0
CLASSIFICATION_TYPE = U
NORAD_CAT_ID   = 17912
ELEMENT_SET_NO = 999
REV_AT_EPOCH   = 8047
BSTAR          = .43831993E-4
MEAN_MOTION_DOT = .403E-5
MEAN_MOTION_DDOT = 0

CCSDS_OMM_VERS = 2.0
CREATION_DATE  = 
ORIGINATOR     = 

OBJECT_NAME    = COSMOS 1844
OBJECT_ID      = 1987-041A
CENTER_NAME    = EARTH
REF_FRAME      = TEME
TIME_SYSTEM    = UTC
MEAN_ELEMENT_THEORY = SGP/SGP4

EPOCH          = 2026-03-18T02:21:20.444256
MEAN_MOTION    = 14.14551154
ECCENTRICITY   = .0030447
INCLINATION    = 70.9008
RA_OF_ASC_NODE = 16.4401
ARG_OF_PERICENTER = 5.5792
MEAN_ANOMALY   = 354.5663

EPHEMERIS_TYPE = 0
CLASSIFICATION_TYPE = U
NORAD_CAT_ID   = 17973
ELEMENT_SET_NO = 999
REV_AT_EPOCH   = 477
BSTAR          = .20536156E-4
MEAN_MOTION_DOT = -.9E-7
MEAN_MOTION_DDOT = 0

CCSDS_OMM_VERS = 2.0
CREATION_DATE  = 
ORIGINATOR     = 

OBJECT_NAME    = SL-14 R/B
OBJECT_ID      = 1987-055B
CENTER_NAME    = EARTH
REF_FRAME      = TEME
TIME_SYSTEM    = UTC
MEAN_ELEMENT_THEORY = SGP/SGP4

EPOCH          = 2026-03-18T02:19:43.225248
MEAN_MOTION    = 14.85638719
ECCENTRICITY   = .00203766
INCLINATION    = 82.5027
RA_OF_ASC_NODE = 341.1098
ARG_OF_PERICENTER = 350.3576
MEAN_ANOMALY   = 9.7245

EPHEMERIS_TYPE = 0
CLASSIFICATION_TYPE = U
NORAD_CAT_ID   = 18153
ELEMENT_SET_NO = 999
REV_AT_EPOCH   = 7118
BSTAR          = .50544201E-4
MEAN_MOTION_DOT = .463E-5
MEAN_MOTION_DDOT = 0

CCSDS_OMM_VERS = 2.0
CREATION_DATE  = 
ORIGINATOR     = 

OBJECT_NAME    = COSMOS 1867
OBJECT_ID      = 1987-060A
CENTER_NAME    = EARTH
REF_FRAME      = TEME
TIME_SYSTEM    = UTC
MEAN_ELEMENT_THEORY = SGP/SGP4

EPOCH          = 2026-03-17T23:08:42.129600
MEAN_MOTION    = 14.31504267
ECCENTRICITY   = .00146036
INCLINATION    = 65.0098
RA_OF_ASC_NODE = 283.5317
ARG_OF_PERICENTER = 279.1420
MEAN_ANOMALY   = 80.8012

EPHEMERIS_TYPE = 0
CLASSIFICATION_TYPE = U
NORAD_CAT_ID   = 18187
ELEMENT_SET_NO = 999
REV_AT_EPOCH   = 2112
BSTAR          = .22697372E-4
MEAN_MOTION_DOT = -.4E-6
MEAN_MOTION_DDOT = 0

CCSDS_OMM_VERS = 2.0
CREATION_DATE  = 
ORIGINATOR     = 

OBJECT_NAME    = SL-14 R/B
OBJECT_ID      = 1988-001B
CENTER_NAME    = EARTH
REF_FRAME      = TEME
TIME_SYSTEM    = UTC
MEAN_ELEMENT_THEORY = SGP/SGP4

EPOCH          = 2026-03-18T07:04:49.366848
MEAN_MOTION    = 14.85538013
ECCENTRICITY   = .00174169
INCLINATION    = 82.5160
RA_OF_ASC_NODE = 187.2687
ARG_OF_PERICENTER = 205.6283
MEAN_ANOMALY   = 154.4072

EPHEMERIS_TYPE = 0
CLASSIFICATION_TYPE = U
NORAD_CAT_ID   = 18749
ELEMENT_SET_NO = 999
REV_AT_EPOCH   = 4330
BSTAR          = .563629E-4
MEAN_MOTION_DOT = .512E-5
MEAN_MOTION_DDOT = 0

CCSDS_OMM_VERS = 2.0
CREATION_DATE  = 
ORIGINATOR     = 

OBJECT_NAME    = COSMOS 1933
OBJECT_ID      = 1988-020A
CENTER_NAME    = EARTH
REF_FRAME      = TEME
TIME_SYSTEM    = UTC
MEAN_ELEMENT_THEORY = SGP/SGP4

EPOCH          = 2026-03-18T03:52:39.558144
MEAN_MOTION    = 15.18062757
ECCENTRICITY   = .00045344
INCLINATION    = 82.5101
RA_OF_ASC_NODE = 242.5275
ARG_OF_PERICENTER = 154.3030
MEAN_ANOMALY   = 205.8430

EPHEMERIS_TYPE = 0
CLASSIFICATION_TYPE = U
NORAD_CAT_ID   = 18958
ELEMENT_SET_NO = 999
REV_AT_EPOCH   = 5151
BSTAR          = .16242934E-3
MEAN_MOTION_DOT = .3338E-4
MEAN_MOTION_DDOT = 0

